start=new Date('2022-06-27T00:00:00.000Z').valueOf();
sats=[{"OBJECT_NAME":"STARLINK-1882","EPOCH":"2022-06-26T13:19:47.510400","MEAN_MOTION":"15.06398349","ECCENTRICITY":"0.00014290","APOAPSIS":"548.208","TIME_SYSTEM":"UTC","SITE":"AFETR","ARG_OF_PERICENTER":"80.6659","PERIAPSIS":"546.229","TLE_LINE1":"1 46784U 20074AX  22177.55541100  .00001687  00000-0  13213-3 0  9997","NORAD_CAT_ID":"46784","DECAY_DATE":null,"MEAN_ELEMENT_THEORY":"SGP4","CLASSIFICATION_TYPE":"U","GP_ID":"206893715","MEAN_MOTION_DOT":"0.00001687","OBJECT_ID":"2020-074AX","EPHEMERIS_TYPE":"0","CENTER_NAME":"EARTH","MEAN_MOTION_DDOT":"0.0000000000000","ELEMENT_SET_NO":"999","COUNTRY_CODE":"US","TLE_LINE2":"2 46784  53.0528 261.5763 0001429  80.6659 279.4491 15.06398349 93011","FILE":"3503181","LAUNCH_DATE":"2020-10-24","REF_FRAME":"TEME","RCS_SIZE":"LARGE","OBJECT_TYPE":"PAYLOAD","MEAN_ANOMALY":"279.4491","PERIOD":"95.592","REV_AT_EPOCH":"9301","SEMIMAJOR_AXIS":"6925.354","RA_OF_ASC_NODE":"261.5763","INCLINATION":"53.0528","BSTAR":"0.00013213000000"},{"FILE":"3503181","TLE_LINE2":"2 46785  53.0533 261.6487 0001556  65.1314 294.9836 15.06421208 93015","COUNTRY_CODE":"US","ELEMENT_SET_NO":"999","LAUNCH_DATE":"2020-10-24","REF_FRAME":"TEME","OBJECT_ID":"2020-074AY","CENTER_NAME":"EARTH","EPHEMERIS_TYPE":"0","MEAN_MOTION_DDOT":"0.0000000000000","RA_OF_ASC_NODE":"261.6487","REV_AT_EPOCH":"9301","SEMIMAJOR_AXIS":"6925.284","INCLINATION":"53.0533","BSTAR":"0.00072852000000","OBJECT_TYPE":"PAYLOAD","RCS_SIZE":"LARGE","MEAN_ANOMALY":"294.9836","PERIOD":"95.591","TIME_SYSTEM":"UTC","APOAPSIS":"548.226","ECCENTRICITY":"0.00015560","MEAN_MOTION":"15.06421208","OBJECT_NAME":"STARLINK-1883","EPOCH":"2022-06-26T12:59:55.592160","MEAN_MOTION_DOT":"0.00010593","GP_ID":"206893965","TLE_LINE1":"1 46785U 20074AY  22177.54161565  .00010593  00000-0  72852-3 0  9990","PERIAPSIS":"546.071","SITE":"AFETR","ARG_OF_PERICENTER":"65.1314","DECAY_DATE":null,"NORAD_CAT_ID":"46785","CLASSIFICATION_TYPE":"U","MEAN_ELEMENT_THEORY":"SGP4"},{"MEAN_MOTION_DOT":"0.00000489","GP_ID":"206925546","MEAN_ELEMENT_THEORY":"SGP4","CLASSIFICATION_TYPE":"U","DECAY_DATE":null,"NORAD_CAT_ID":"46786","TLE_LINE1":"1 46786U 20074AZ  22177.65402291  .00000489  00000-0  51733-4 0  9996","PERIAPSIS":"546.229","SITE":"AFETR","ARG_OF_PERICENTER":"81.5764","TIME_SYSTEM":"UTC","APOAPSIS":"548.155","ECCENTRICITY":"0.00013910","MEAN_MOTION":"15.06407094","OBJECT_NAME":"STARLINK-1893","EPOCH":"2022-06-26T15:41:47.579424","BSTAR":"0.00005173300000","INCLINATION":"53.0552","RA_OF_ASC_NODE":"241.1511","REV_AT_EPOCH":"9331","SEMIMAJOR_AXIS":"6925.327","PERIOD":"95.592","MEAN_ANOMALY":"278.5382","OBJECT_TYPE":"PAYLOAD","RCS_SIZE":"LARGE","REF_FRAME":"TEME","LAUNCH_DATE":"2020-10-24","TLE_LINE2":"2 46786  53.0552 241.1511 0001391  81.5764 278.5382 15.06407094 93310","COUNTRY_CODE":"US","FILE":"3503441","ELEMENT_SET_NO":"999","MEAN_MOTION_DDOT":"0.0000000000000","CENTER_NAME":"EARTH","EPHEMERIS_TYPE":"0","OBJECT_ID":"2020-074AZ"},{"MEAN_ELEMENT_THEORY":"SGP4","CLASSIFICATION_TYPE":"U","TLE_LINE1":"1 46787U 20074BA  22177.91205615  .00001481  00000-0  11830-3 0  9993","SITE":"AFETR","PERIAPSIS":"546.151","ARG_OF_PERICENTER":"77.3176","NORAD_CAT_ID":"46787","DECAY_DATE":null,"MEAN_MOTION_DOT":"0.00001481","GP_ID":"206925798","MEAN_MOTION":"15.06395632","EPOCH":"2022-06-26T21:53:21.651360","OBJECT_NAME":"STARLINK-1899","TIME_SYSTEM":"UTC","APOAPSIS":"548.302","ECCENTRICITY":"0.00015530","MEAN_ANOMALY":"282.7987","PERIOD":"95.592","OBJECT_TYPE":"PAYLOAD","RCS_SIZE":"LARGE","INCLINATION":"53.0544","BSTAR":"0.00011830000000","RA_OF_ASC_NODE":"239.9782","REV_AT_EPOCH":"9335","SEMIMAJOR_AXIS":"6925.362","MEAN_MOTION_DDOT":"0.0000000000000","OBJECT_ID":"2020-074BA","CENTER_NAME":"EARTH","EPHEMERIS_TYPE":"0","LAUNCH_DATE":"2020-10-24","REF_FRAME":"TEME","COUNTRY_CODE":"US","TLE_LINE2":"2 46787  53.0544 239.9782 0001553  77.3176 282.7987 15.06395632 93353","FILE":"3503441","ELEMENT_SET_NO":"999"},{"TLE_LINE2":"2 46788  53.0528 240.0274 0001570  54.2257 305.8877 15.06407063 93355","COUNTRY_CODE":"US","FILE":"3503441","ELEMENT_SET_NO":"999","REF_FRAME":"TEME","LAUNCH_DATE":"2020-10-24","EPHEMERIS_TYPE":"0","CENTER_NAME":"EARTH","OBJECT_ID":"2020-074BB","MEAN_MOTION_DDOT":"0.0000000000000","RA_OF_ASC_NODE":"240.0274","REV_AT_EPOCH":"9335","SEMIMAJOR_AXIS":"6925.327","BSTAR":"0.00010103000000","INCLINATION":"53.0528","OBJECT_TYPE":"PAYLOAD","RCS_SIZE":"LARGE","PERIOD":"95.592","MEAN_ANOMALY":"305.8877","TIME_SYSTEM":"UTC","APOAPSIS":"548.279","ECCENTRICITY":"0.00015700","MEAN_MOTION":"15.06407063","EPOCH":"2022-06-26T21:42:43.341984","OBJECT_NAME":"STARLINK-1929","MEAN_MOTION_DOT":"0.00001224","GP_ID":"206926026","NORAD_CAT_ID":"46788","DECAY_DATE":null,"TLE_LINE1":"1 46788U 20074BB  22177.90466831  .00001224  00000-0  10103-3 0  9999","SITE":"AFETR","PERIAPSIS":"546.105","ARG_OF_PERICENTER":"54.2257","CLASSIFICATION_TYPE":"U","MEAN_ELEMENT_THEORY":"SGP4"},{"GP_ID":"206894464","MEAN_MOTION_DOT":"0.00000436","SITE":"AFETR","ARG_OF_PERICENTER":"74.6684","PERIAPSIS":"546.098","TLE_LINE1":"1 46789U 20074BC  22177.52965926  .00000436  00000-0  48146-4 0  9990","DECAY_DATE":null,"NORAD_CAT_ID":"46789","MEAN_ELEMENT_THEORY":"SGP4","CLASSIFICATION_TYPE":"U","ECCENTRICITY":"0.00015980","APOAPSIS":"548.311","TIME_SYSTEM":"UTC","EPOCH":"2022-06-26T12:42:42.560064","OBJECT_NAME":"STARLINK-1930","MEAN_MOTION":"15.06402955","REV_AT_EPOCH":"9287","SEMIMAJOR_AXIS":"6925.340","RA_OF_ASC_NODE":"271.8669","INCLINATION":"53.0549","BSTAR":"0.00004814600000","RCS_SIZE":"LARGE","OBJECT_TYPE":"PAYLOAD","MEAN_ANOMALY":"285.4482","PERIOD":"95.592","ELEMENT_SET_NO":"999","COUNTRY_CODE":"US","TLE_LINE2":"2 46789  53.0549 271.8669 0001598  74.6684 285.4482 15.06402955 92875","FILE":"3503181","LAUNCH_DATE":"2020-10-24","REF_FRAME":"TEME","OBJECT_ID":"2020-074BC","CENTER_NAME":"EARTH","EPHEMERIS_TYPE":"0","MEAN_MOTION_DDOT":"0.0000000000000"},{"ECCENTRICITY":"0.00014180","APOAPSIS":"548.206","TIME_SYSTEM":"UTC","OBJECT_NAME":"STARLINK-1931","EPOCH":"2022-06-26T15:00:40.388544","MEAN_MOTION":"15.06396599","GP_ID":"206925048","MEAN_MOTION_DOT":"-0.00000103","DECAY_DATE":null,"NORAD_CAT_ID":"46790","ARG_OF_PERICENTER":"77.0365","SITE":"AFETR","PERIAPSIS":"546.242","TLE_LINE1":"1 46790U 20074BD  22177.62546746 -.00000103  00000-0  11981-4 0  9997","MEAN_ELEMENT_THEORY":"SGP4","CLASSIFICATION_TYPE":"U","ELEMENT_SET_NO":"999","TLE_LINE2":"2 46790  53.0563 271.2836 0001418  77.0365 283.0782 15.06396599 92881","FILE":"3503441","COUNTRY_CODE":"US","REF_FRAME":"TEME","LAUNCH_DATE":"2020-10-24","CENTER_NAME":"EARTH","EPHEMERIS_TYPE":"0","OBJECT_ID":"2020-074BD","MEAN_MOTION_DDOT":"0.0000000000000","REV_AT_EPOCH":"9288","SEMIMAJOR_AXIS":"6925.359","RA_OF_ASC_NODE":"271.2836","BSTAR":"0.00001198100000","INCLINATION":"53.0563","RCS_SIZE":"LARGE","OBJECT_TYPE":"PAYLOAD","PERIOD":"95.592","MEAN_ANOMALY":"283.0782"},{"INCLINATION":"53.0567","BSTAR":"0.00006102800000","REV_AT_EPOCH":"9289","SEMIMAJOR_AXIS":"6925.335","RA_OF_ASC_NODE":"271.2024","MEAN_ANOMALY":"312.7738","PERIOD":"95.592","RCS_SIZE":"LARGE","OBJECT_TYPE":"PAYLOAD","LAUNCH_DATE":"2020-10-24","REF_FRAME":"TEME","ELEMENT_SET_NO":"999","TLE_LINE2":"2 46791  53.0567 271.2024 0001689  47.3393 312.7738 15.06404510 92891","FILE":"3503441","COUNTRY_CODE":"US","MEAN_MOTION_DDOT":"0.0000000000000","OBJECT_ID":"2020-074BE","CENTER_NAME":"EARTH","EPHEMERIS_TYPE":"0","GP_ID":"206926298","MEAN_MOTION_DOT":"0.00000628","MEAN_ELEMENT_THEORY":"SGP4","CLASSIFICATION_TYPE":"U","PERIAPSIS":"546.030","SITE":"AFETR","ARG_OF_PERICENTER":"47.3393","TLE_LINE1":"1 46791U 20074BE  22177.64021141  .00000628  00000-0  61028-4 0  9995","DECAY_DATE":null,"NORAD_CAT_ID":"46791","ECCENTRICITY":"0.00016890","TIME_SYSTEM":"UTC","APOAPSIS":"548.369","OBJECT_NAME":"STARLINK-1933","EPOCH":"2022-06-26T15:21:54.265824","MEAN_MOTION":"15.06404510"},{"REF_FRAME":"TEME","LAUNCH_DATE":"2020-10-24","TLE_LINE2":"2 46792  53.0545 261.3718 0001601  51.0787 309.0344 15.06398732 93027","COUNTRY_CODE":"US","FILE":"3503441","ELEMENT_SET_NO":"999","MEAN_MOTION_DDOT":"0.0000000000000","CENTER_NAME":"EARTH","EPHEMERIS_TYPE":"0","OBJECT_ID":"2020-074BF","BSTAR":"0.00013269000000","INCLINATION":"53.0545","RA_OF_ASC_NODE":"261.3718","SEMIMAJOR_AXIS":"6925.352","REV_AT_EPOCH":"9302","PERIOD":"95.592","MEAN_ANOMALY":"309.0344","OBJECT_TYPE":"PAYLOAD","RCS_SIZE":"LARGE","TIME_SYSTEM":"UTC","APOAPSIS":"548.326","ECCENTRICITY":"0.00016010","MEAN_MOTION":"15.06398732","OBJECT_NAME":"STARLINK-1934","EPOCH":"2022-06-26T14:24:50.356512","MEAN_MOTION_DOT":"0.00001695","GP_ID":"206926526","CLASSIFICATION_TYPE":"U","MEAN_ELEMENT_THEORY":"SGP4","DECAY_DATE":null,"NORAD_CAT_ID":"46792","TLE_LINE1":"1 46792U 20074BF  22177.60058283  .00001695  00000-0  13269-3 0  9997","SITE":"AFETR","PERIAPSIS":"546.109","ARG_OF_PERICENTER":"51.0787"},{"SEMIMAJOR_AXIS":"6925.343","REV_AT_EPOCH":"9287","RA_OF_ASC_NODE":"271.5587","INCLINATION":"53.0552","BSTAR":"0.00001361700000","RCS_SIZE":"LARGE","OBJECT_TYPE":"PAYLOAD","MEAN_ANOMALY":"285.5165","PERIOD":"95.592","ELEMENT_SET_NO":"999","COUNTRY_CODE":"US","TLE_LINE2":"2 46793  53.0552 271.5587 0001405  74.5979 285.5165 15.06401853 92878","FILE":"3503181","LAUNCH_DATE":"2020-10-24","REF_FRAME":"TEME","OBJECT_ID":"2020-074BG","EPHEMERIS_TYPE":"0","CENTER_NAME":"EARTH","MEAN_MOTION_DDOT":"0.0000000000000","GP_ID":"206893966","MEAN_MOTION_DOT":"-0.00000079","ARG_OF_PERICENTER":"74.5979","SITE":"AFETR","PERIAPSIS":"546.235","TLE_LINE1":"1 46793U 20074BG  22177.56280711 -.00000079  00000-0  13617-4 0  9990","NORAD_CAT_ID":"46793","DECAY_DATE":null,"CLASSIFICATION_TYPE":"U","MEAN_ELEMENT_THEORY":"SGP4","ECCENTRICITY":"0.00014050","TIME_SYSTEM":"UTC","APOAPSIS":"548.181","OBJECT_NAME":"STARLINK-1941","EPOCH":"2022-06-26T13:30:26.534304","MEAN_MOTION":"15.06401853"}];
